ONEWEB-0504             
1 54122U 22138K   26166.30866638  .00000002  00000+0 -28531-4 0  9996
2 54122  87.9175 305.3395 0001649  94.4810 265.6511 13.19725337176581
ONEWEB-0505             
1 54123U 22138L   26166.07805977 -.00000078  00000+0 -22649-3 0  9997
2 54123  87.9173 305.3866 0001393  96.9603 263.1688 13.19726032176532
ONEWEB-0506             
1 54124U 22138M   26166.12858888 -.00000028  00000+0 -10240-3 0  9992
2 54124  87.9179 305.3735 0001527  99.6234 260.5071 13.19723319176535
ONEWEB-0507             
1 54125U 22138N   26165.92168481 -.00000034  00000+0 -11693-3 0  9993
2 54125  87.9166 305.4271 0001655 100.6403 259.4916 13.19725039176559
ONEWEB-0508             
1 54126U 22138P   26166.29759995  .00000027  00000+0  33914-4 0  9992
2 54126  87.9168 305.3517 0001494 107.6983 252.4313 13.19724323176587
ONEWEB-0509             
1 54127U 22138Q   26165.89324192 -.00000056  00000+0 -17232-3 0  9993
2 54127  87.9177 305.4215 0001690  99.6122 260.5201 13.19719549176509
ONEWEB-0510             
1 54128U 22138R   26166.31385813  .00000095  00000+0  20164-3 0  9998
2 54128  87.9193 274.8089 0002410  96.0397 264.1011 13.20772873179033
ONEWEB-0511             
1 54129U 22138S   26165.89009506  .00000002  00000+0 -26516-4 0  9990
2 54129  87.9174 305.4251 0001767  89.1586 270.9749 13.19725891176533
ONEWEB-0512             
1 54130U 22138T   26166.10963986  .00000076  00000+0  15686-3 0  9993
2 54130  87.9166 305.3866 0001524  94.2779 265.8528 13.19724955176537
ONEWEB-0513             
1 54131U 22138U   26166.11611116  .00000065  00000+0  12824-3 0  9999
2 54131  87.9174 305.3295 0001203  72.2902 287.8363 13.20268490176441
ONEWEB-0514             
1 54132U 22138V   26166.12543558  .00000190  00000+0  44166-3 0  9998
2 54132  87.9183 305.3770 0002031  94.3484 265.7881 13.19724722176555
ONEWEB-0515             
1 54133U 22138W   26166.30038293  .00000080  00000+0  16470-3 0  9999
2 54133  87.9198 274.8061 0002687 112.1663 247.9756 13.20770380179054
ONEWEB-0516             
1 54134U 22138X   26166.10015875  .00000003  00000+0 -25640-4 0  9995
2 54134  87.9164 305.3884 0001803 102.6545 257.4790 13.19725368176553
ONEWEB-0517             
1 54135U 22138Y   26166.07962876 -.00000055  00000+0 -16958-3 0  9993
2 54135  87.9174 305.3846 0001939  88.9654 271.1701 13.19724655176553
ONEWEB-0518             
1 54136U 22138Z   26166.09860186 -.00000022  00000+0 -86961-4 0  9993
2 54136  87.9166 305.3907 0001822 104.5694 255.5641 13.19727807176554
ONEWEB-0519             
1 54137U 22138AA  26166.12386574  .00000015  00000+0  41468-5 0  9996
2 54137  87.9179 305.3767 0001920  92.5469 267.5884 13.19726126176564
